NUSAT-50 (NANCY ROMAN)  
1 60493U 24149AB  26068.80227738  .00012094  00000+0  42252-3 0  9994
2 60493  97.3817 150.7693 0002523 238.0469 122.0527 15.29713355 86930
STARLINK-34121          
1 63961U 25099K   26068.34660820  .00025840  00000+0  94465-3 0  9990
2 63961  42.9973 178.1738 0001742 164.0351 196.0556 15.27599454 47284
